{
  "type": "FeatureCollection",
  "features": [
    {
      "type": "Feature",
      "properties": {
        "norad_id": 58647,
        "name": "TIANMU-1 13",
        "group": "weather",
        "lat": -2.927463808069348,
        "lon": -160.7547648332634,
        "alt_km": 491.02787410073597,
        "timestamp": "2025-12-26T05:31:12.142388+00:00",
        "meta_object_name": "TIANMU-1 13",
        "meta_object_id": "2023-205C",
        "meta_epoch": "2025-12-25T23:59:42.134208",
        "meta_mean_motion": 15.24688208,
        "meta_eccentricity": 0.00067307,
        "meta_inclination": 97.3615,
        "meta_ra_of_asc_node": 19.3978,
        "meta_arg_of_pericenter": 209.6599,
        "meta_mean_anomaly": 150.4258,
        "meta_ephemeris_type": 0,
        "meta_classification_type": "U",
        "meta_norad_cat_id": 58647,
        "meta_element_set_no": 999,
        "meta_rev_at_epoch": 11109,
        "meta_bstar": 0.00027322108,
        "meta_mean_motion_dot": 6.688e-05,
        "meta_mean_motion_ddot": 0,
        "tle_line1": "1 58647U 23205C   25359.99979322  .00006688  00000+0  27322-3 0  9992",
        "tle_line2": "2 58647  97.3615  19.3978 0006730 209.6599 150.4258 15.24688208111097"
      },
      "geometry": {
        "type": "Point",
        "coordinates": [
          -160.7547648332634,
          -2.927463808069348
        ]
      }
    },
    {
      "type": "Feature",
      "properties": {
        "norad_id": 58648,
        "name": "TIANMU-1 14",
        "group": "weather",
        "lat": -81.99614444985316,
        "lon": 85.68255258244733,
        "alt_km": 496.4506252829988,
        "timestamp": "2025-12-26T05:31:12.142398+00:00",
        "meta_object_name": "TIANMU-1 14",
        "meta_object_id": "2023-205D",
        "meta_epoch": "2025-12-25T23:36:00.525024",
        "meta_mean_motion": 15.24670958,
        "meta_eccentricity": 0.00074373,
        "meta_inclination": 97.3547,
        "meta_ra_of_asc_node": 18.7181,
        "meta_arg_of_pericenter": 215.6913,
        "meta_mean_anomaly": 144.3828,
        "meta_ephemeris_type": 0,
        "meta_classification_type": "U",
        "meta_norad_cat_id": 58648,
        "meta_element_set_no": 999,
        "meta_rev_at_epoch": 11109,
        "meta_bstar": 0.00025802505,
        "meta_mean_motion_dot": 6.309e-05,
        "meta_mean_motion_ddot": 0,
        "tle_line1": "1 58648U 23205D   25359.98333941  .00006309  00000+0  25803-3 0  9995",
        "tle_line2": "2 58648  97.3547  18.7181 0007437 215.6913 144.3828 15.24670958111091"
      },
      "geometry": {
        "type": "Point",
        "coordinates": [
          85.68255258244733,
          -81.99614444985316
        ]
      }
    },
    {
      "type": "Feature",
      "properties": {
        "norad_id": 58660,
        "name": "TIANMU-1 19",
        "group": "weather",
        "lat": -27.842261604958832,
        "lon": 115.19936067659609,
        "alt_km": 489.7925856372849,
        "timestamp": "2025-12-26T05:31:12.142409+00:00",
        "meta_object_name": "TIANMU-1 19",
        "meta_object_id": "2023-208A",
        "meta_epoch": "2025-12-25T21:47:05.507232",
        "meta_mean_motion": 15.28088574,
        "meta_eccentricity": 0.00048523,
        "meta_inclination": 97.4387,
        "meta_ra_of_asc_node": 110.9205,
        "meta_arg_of_pericenter": 197.3025,
        "meta_mean_anomaly": 162.805,
        "meta_ephemeris_type": 0,
        "meta_classification_type": "U",
        "meta_norad_cat_id": 58660,
        "meta_element_set_no": 999,
        "meta_rev_at_epoch": 11083,
        "meta_bstar": 0.00034302408,
        "meta_mean_motion_dot": 9.326e-05,
        "meta_mean_motion_ddot": 0,
        "tle_line1": "1 58660U 23208A   25359.90770263  .00009326  00000+0  34302-3 0  9992",
        "tle_line2": "2 58660  97.4387 110.9205 0004852 197.3025 162.8050 15.28088574110832"
      },
      "geometry": {
        "type": "Point",
        "coordinates": [
          115.19936067659609,
          -27.842261604958832
        ]
      }
    },
    {
      "type": "Feature",
      "properties": {
        "norad_id": 58661,
        "name": "TIANMU-1 20",
        "group": "weather",
        "lat": 74.28709361011336,
        "lon": -40.64983383765457,
        "alt_km": 472.2352343078883,
        "timestamp": "2025-12-26T05:31:12.142422+00:00",
        "meta_object_name": "TIANMU-1 20",
        "meta_object_id": "2023-208B",
        "meta_epoch": "2025-12-25T22:47:07.968192",
        "meta_mean_motion": 15.29279245,
        "meta_eccentricity": 0.0006872,
        "meta_inclination": 97.4324,
        "meta_ra_of_asc_node": 111.4227,
        "meta_arg_of_pericenter": 211.6149,
        "meta_mean_anomaly": 148.4679,
        "meta_ephemeris_type": 0,
        "meta_classification_type": "U",
        "meta_norad_cat_id": 58661,
        "meta_element_set_no": 999,
        "meta_rev_at_epoch": 11091,
        "meta_bstar": 0.00034366187,
        "meta_mean_motion_dot": 9.694e-05,
        "meta_mean_motion_ddot": 0,
        "tle_line1": "1 58661U 23208B   25359.94939778  .00009694  00000+0  34366-3 0  9993",
        "tle_line2": "2 58661  97.4324 111.4227 0006872 211.6149 148.4679 15.29279245110919"
      },
      "geometry": {
        "type": "Point",
        "coordinates": [
          -40.64983383765457,
          74.28709361011336
        ]
      }
    },
    {
      "type": "Feature",
      "properties": {
        "norad_id": 58662,
        "name": "TIANMU-1 21",
        "group": "weather",
        "lat": -50.93255208050498,
        "lon": -75.58852450467818,
        "alt_km": 473.31635203061796,
        "timestamp": "2025-12-26T05:31:12.142432+00:00",
        "meta_object_name": "TIANMU-1 21",
        "meta_object_id": "2023-208C",
        "meta_epoch": "2025-12-25T22:14:29.759712",
        "meta_mean_motion": 15.31832485,
        "meta_eccentricity": 0.00065056,
        "meta_inclination": 97.4374,
        "meta_ra_of_asc_node": 113.368,
        "meta_arg_of_pericenter": 206.0157,
        "meta_mean_anomaly": 154.0759,
        "meta_ephemeris_type": 0,
        "meta_classification_type": "U",
        "meta_norad_cat_id": 58662,
        "meta_element_set_no": 999,
        "meta_rev_at_epoch": 11101,
        "meta_bstar": 0.00037839232,
        "meta_mean_motion_dot": 0.00011564,
        "meta_mean_motion_ddot": 0,
        "tle_line1": "1 58662U 23208C   25359.92673333  .00011564  00000+0  37839-3 0  9991",
        "tle_line2": "2 58662  97.4374 113.3680 0006505 206.0157 154.0759 15.31832485111017"
      },
      "geometry": {
        "type": "Point",
        "coordinates": [
          -75.58852450467818,
          -50.93255208050498
        ]
      }
    },
    {
      "type": "Feature",
      "properties": {
        "norad_id": 58663,
        "name": "TIANMU-1 22",
        "group": "weather",
        "lat": -38.82329676672494,
        "lon": 117.32961120213496,
        "alt_km": 489.25488907930503,
        "timestamp": "2025-12-26T05:31:12.142442+00:00",
        "meta_object_name": "TIANMU-1 22",
        "meta_object_id": "2023-208D",
        "meta_epoch": "2025-12-25T21:49:55.466400",
        "meta_mean_motion": 15.2782515,
        "meta_eccentricity": 0.00030289,
        "meta_inclination": 97.438,
        "meta_ra_of_asc_node": 110.9755,
        "meta_arg_of_pericenter": 220.1916,
        "meta_mean_anomaly": 139.9099,
        "meta_ephemeris_type": 0,
        "meta_classification_type": "U",
        "meta_norad_cat_id": 58663,
        "meta_element_set_no": 999,
        "meta_rev_at_epoch": 11084,
        "meta_bstar": 0.00033194365,
        "meta_mean_motion_dot": 8.948e-05,
        "meta_mean_motion_ddot": 0,
        "tle_line1": "1 58663U 23208D   25359.90966975  .00008948  00000+0  33194-3 0  9999",
        "tle_line2": "2 58663  97.4380 110.9755 0003028 220.1916 139.9099 15.27825150110843"
      },
      "geometry": {
        "type": "Point",
        "coordinates": [
          117.32961120213496,
          -38.82329676672494
        ]
      }
    },
    {
      "type": "Feature",
      "properties": {
        "norad_id": 58700,
        "name": "TIANMU-1 15",
        "group": "weather",
        "lat": -64.57651288835451,
        "lon": -162.34267061527513,
        "alt_km": 497.2712731510419,
        "timestamp": "2025-12-26T05:31:12.142452+00:00",
        "meta_object_name": "TIANMU-1 15",
        "meta_object_id": "2024-004A",
        "meta_epoch": "2025-12-25T23:30:24.058368",
        "meta_mean_motion": 15.24582108,
        "meta_eccentricity": 0.00060982,
        "meta_inclination": 97.463,
        "meta_ra_of_asc_node": 181.3994,
        "meta_arg_of_pericenter": 233.8184,
        "meta_mean_anomaly": 126.249,
        "meta_ephemeris_type": 0,
        "meta_classification_type": "U",
        "meta_norad_cat_id": 58700,
        "meta_element_set_no": 999,
        "meta_rev_at_epoch": 10936,
        "meta_bstar": 0.00030071108,
        "meta_mean_motion_dot": 7.343e-05,
        "meta_mean_motion_ddot": 0,
        "tle_line1": "1 58700U 24004A   25359.97944512  .00007343  00000+0  30071-3 0  9995",
        "tle_line2": "2 58700  97.4630 181.3994 0006098 233.8184 126.2490 15.24582108109367"
      },
      "geometry": {
        "type": "Point",
        "coordinates": [
          -162.34267061527513,
          -64.57651288835451
        ]
      }
    }
  ]
}